OBJECT_NAME,OBJECT_ID,EPOCH,MEAN_MOTION,ECCENTRICITY,INCLINATION,RA_OF_ASC_NODE,ARG_OF_PERICENTER,MEAN_ANOMALY,EPHEMERIS_TYPE,CLASSIFICATION_TYPE,NORAD_CAT_ID,ELEMENT_SET_NO,REV_AT_EPOCH,BSTAR,MEAN_MOTION_DOT,MEAN_MOTION_DDOT
CUTE-1 (CO-55),2003-031E,2026-07-23T00:05:36.294720,14.24355144,.00108513,98.6747,212.1136,82.6312,277.6100,0,U,27844,999,19677,.1220184E-3,.238E-5,0
CUBESAT XI-IV (CO-57),2003-031J,2026-07-23T00:14:55.181760,14.23637690,.00107129,98.6778,211.8037,99.0689,261.1702,0,U,27848,999,19647,.10893948E-3,.205E-5,0
CUBESAT XI-V,2005-043F,2026-07-21T08:59:40.719840,14.72712744,.0015344,98.3024,358.7230,97.2573,263.0378,0,U,28895,999,10678,.15413557E-3,.932E-5,0
CUTE-1.7+APD II (CO-65),2008-021C,2026-07-23T21:41:03.809184,15.09759353,.0006984,97.8297,187.0993,262.5532,97.4902,0,U,32785,999,99073,.34633E-3,.5526E-4,0
CANX-2,2008-021H,2026-07-23T04:09:37.706112,15.05839367,.00086845,97.8656,184.6611,285.1873,74.8392,0,U,32790,999,99022,.25919961E-3,.3699E-4,0
SEEDS II (CO-66),2008-021J,2026-07-23T10:03:53.123040,15.33884906,.0003921,97.7535,204.0815,140.5450,219.6077,0,U,32791,999,99284,.5805E-3,.18972E-3,0
SWISSCUBE,2009-051B,2026-07-23T16:51:57.883392,14.62542626,.0008119,98.3998,113.2224,96.5719,263.6406,0,U,35932,999,89449,.17279E-3,.827E-5,0
BEESAT-1,2009-051C,2026-07-23T10:58:49.054080,14.61771462,.0006473,98.3926,112.5322,108.5434,251.6470,0,U,35933,999,89448,.14632E-3,.681E-5,0
ITUPSAT1,2009-051E,2026-07-23T16:27:28.800000,14.60487961,.000853,98.4010,111.9164,119.7043,240.5006,0,U,35935,999,89406,.13985E-3,.63E-5,0
TISAT 1,2010-035E,2026-07-23T19:34:08.031072,15.32998481,.0004872,98.0705,154.6552,103.9525,256.2257,0,U,36799,999,87331,.66889E-3,.21276E-3,0
STRAND-1,2013-009E,2026-07-23T01:12:19.700064,14.37182344,.00097296,98.3941,23.4053,120.1275,240.0877,0,U,39090,999,70221,.95167118E-4,.241E-5,0
BRITE-AUSTRIA,2013-009F,2026-07-23T10:14:47.707584,14.36554972,.0011164,98.4015,22.9694,128.0957,232.1238,0,U,39091,999,70225,.66177E-4,.152E-5,0
NEE-01 PEGASO,2013-018B,2026-07-22T20:03:20.143584,14.93816948,.00134607,98.1267,349.1763,51.2724,308.9696,0,U,39151,999,71602,.20250938E-3,.209E-4,0
POPACS 2,2013-055E,2026-07-23T11:11:05.697888,14.92301661,.0413888,80.9912,102.6444,77.3533,287.3618,0,U,39269,999,66862,.39593E-3,.24147E-3,-.85698E-6
POPACS 3,2013-055F,2026-07-23T09:22:49.407168,14.56801841,.0547706,81.0011,189.9076,319.6638,36.5105,0,U,39270,999,64382,.22978E-3,.9628E-4,0
ZACUBE-1 (TSHEPISOSAT),2013-066B,2026-07-23T07:58:43.857120,15.01362379,.0044074,97.7990,166.8439,129.2358,231.2791,0,U,39417,999,68615,.26445E-3,.3415E-4,0
WNISAT-1,2013-066H,2026-07-23T20:33:38.824704,14.58134840,.016424,97.7246,351.4186,116.2252,245.5936,0,U,39423,999,67207,.19587E-3,.1039E-4,0
TRITON-1,2013-066M,2026-07-23T19:53:28.851360,14.81820622,.0091186,97.8207,113.7971,114.3708,246.7057,0,U,39427,999,67951,.29594E-3,.2457E-4,0
GOMX-1,2013-066Q,2026-07-23T19:38:35.270592,14.69557069,.0127527,97.6472,42.9702,320.4109,38.7837,0,U,39430,999,67529,.17591E-3,.1129E-4,0
CUBEBUG-2 (LO-74),2013-066AA,2026-07-23T20:02:34.628928,14.94009532,.00555,97.8914,153.9789,265.9774,93.5100,0,U,39440,999,68246,.23515E-3,.2521E-4,0
NEE-02 KRYSAOR,2013-066AB,2026-07-23T06:49:09.689088,14.86763677,.0064744,97.8897,143.2466,312.4198,47.1551,0,U,39441,999,68156,.20262E-3,.1814E-4,0
FUNCUBE-1 (AO-73),2013-066AE,2026-07-23T12:15:07.741728,15.09909897,.0038149,97.8300,176.7303,80.8155,279.7386,0,U,39444,999,68514,.46628E-3,.7621E-4,0
UWE-3,2013-066AG,2026-07-23T20:11:31.755264,14.97246613,.0047902,97.8727,161.1728,194.9882,164.9923,0,U,39446,999,68306,.29571E-3,.3442E-4,0
BRITE-CA1 (TORONTO),2014-033L,2026-07-23T19:05:13.902720,14.72736379,.0079115,97.9780,333.0575,158.8153,201.6362,0,U,40020,999,64760,.15383E-3,.978E-5,0
DUCHIFAT-1,2014-033M,2026-07-23T03:04:09.829056,15.72917143,.0003896,98.0412,268.5702,226.4566,133.6372,0,U,40021,999,66138,.12882E-2,.177994E-2,0
NANOSATC-BR1,2014-033Q,2026-07-23T18:45:20.133792,15.32548717,.0004893,98.0713,240.4405,76.5125,283.6660,0,U,40024,999,65958,.57271E-3,.17941E-3,0
QB50P1,2014-033R,2026-07-22T19:10:54.290208,15.18749882,.00105654,98.0975,217.4558,102.9257,257.3156,0,U,40025,999,65843,.41699772E-3,.8602E-4,0
QB50P2,2014-033Y,2026-07-23T19:31:14.736000,15.15594889,.0008935,98.0772,203.9885,59.9855,300.2261,0,U,40032,999,65821,.39859E-3,.7503E-4,0
PERSEUS-M2,2014-033AD,2026-07-23T20:40:16.630176,14.95600904,.0011782,97.9970,156.1543,171.8573,188.2840,0,U,40037,999,65626,.12307E-3,.1307E-4,0
PERSEUS-M1,2014-033AF,2026-07-23T19:57:01.190592,14.95732727,.0011627,97.9652,149.5700,168.6550,191.4935,0,U,40039,999,65611,.8811E-4,.922E-5,0
